start=new Date('2023-03-11T00:00:00.000Z').valueOf();
sats=[{"MEAN_MOTION_DDOT":"0.0000000000000","SITE":"AFETR","CENTER_NAME":"EARTH","REV_AT_EPOCH":"2637","COUNTRY_CODE":"US","ARG_OF_PERICENTER":"86.2826","TIME_SYSTEM":"UTC","ECCENTRICITY":"0.00011830","MEAN_ANOMALY":"273.8301","EPOCH":"2023-03-10T15:51:47.281824","GP_ID":"227820075","PERIOD":"95.438","REF_FRAME":"TEME","RCS_SIZE":"LARGE","CLASSIFICATION_TYPE":"U","DECAY_DATE":null,"MEAN_MOTION":"15.08826097","MEAN_ELEMENT_THEORY":"SGP4","APOAPSIS":"540.606","EPHEMERIS_TYPE":"0","RA_OF_ASC_NODE":"199.8095","SEMIMAJOR_AXIS":"6917.923","INCLINATION":"53.2168","TLE_LINE2":"2 53895  53.2168 199.8095 0001183  86.2826 273.8301 15.08826097 26371","TLE_LINE1":"1 53895U 22119K   23069.66096391 -.00001609  00000-0 -83055-4 0  9998","ELEMENT_SET_NO":"999","FILE":"3856975","NORAD_CAT_ID":"53895","PERIAPSIS":"538.969","OBJECT_ID":"2022-119K","OBJECT_NAME":"STARLINK-5032","OBJECT_TYPE":"PAYLOAD","LAUNCH_DATE":"2022-09-24","MEAN_MOTION_DOT":"-0.00001609","BSTAR":"-0.00008305500000"},{"GP_ID":"227818823","PERIOD":"95.436","REF_FRAME":"TEME","MEAN_ANOMALY":"241.1425","EPOCH":"2023-03-10T15:41:08.845440","RCS_SIZE":"LARGE","CENTER_NAME":"EARTH","MEAN_MOTION_DDOT":"0.0000000000000","SITE":"AFETR","TIME_SYSTEM":"UTC","ECCENTRICITY":"0.00017430","REV_AT_EPOCH":"2637","COUNTRY_CODE":"US","ARG_OF_PERICENTER":"118.9742","OBJECT_NAME":"STARLINK-5037","MEAN_MOTION_DOT":"0.00031757","BSTAR":"0.00200340000000","OBJECT_TYPE":"PAYLOAD","LAUNCH_DATE":"2022-09-24","APOAPSIS":"540.891","EPHEMERIS_TYPE":"0","SEMIMAJOR_AXIS":"6917.821","RA_OF_ASC_NODE":"199.7679","INCLINATION":"53.2199","CLASSIFICATION_TYPE":"U","DECAY_DATE":null,"MEAN_MOTION":"15.08859574","MEAN_ELEMENT_THEORY":"SGP4","OBJECT_ID":"2022-119L","TLE_LINE2":"2 53896  53.2199 199.7679 0001743 118.9742 241.1425 15.08859574 26376","ELEMENT_SET_NO":"999","TLE_LINE1":"1 53896U 22119L   23069.65357460  .00031757  00000-0  20034-2 0  9996","FILE":"3856975","NORAD_CAT_ID":"53896","PERIAPSIS":"538.480"},{"CENTER_NAME":"EARTH","MEAN_MOTION_DDOT":"0.0000000000000","SITE":"AFETR","TIME_SYSTEM":"UTC","ECCENTRICITY":"0.00009250","REV_AT_EPOCH":"2638","COUNTRY_CODE":"US","ARG_OF_PERICENTER":"63.7716","GP_ID":"227819073","PERIOD":"95.438","REF_FRAME":"TEME","MEAN_ANOMALY":"296.3371","EPOCH":"2023-03-10T17:37:46.104096","RCS_SIZE":"LARGE","APOAPSIS":"540.397","EPHEMERIS_TYPE":"0","SEMIMAJOR_AXIS":"6917.893","RA_OF_ASC_NODE":"199.5558","INCLINATION":"53.2151","CLASSIFICATION_TYPE":"U","MEAN_MOTION":"15.08836014","DECAY_DATE":null,"MEAN_ELEMENT_THEORY":"SGP4","OBJECT_ID":"2022-119M","TLE_LINE2":"2 53897  53.2151 199.5558 0000925  63.7716 296.3371 15.08836014 26385","TLE_LINE1":"1 53897U 22119M   23069.73456139  .00002149  00000-0  15305-3 0  9998","ELEMENT_SET_NO":"999","FILE":"3856975","NORAD_CAT_ID":"53897","PERIAPSIS":"539.118","OBJECT_NAME":"STARLINK-5035","MEAN_MOTION_DOT":"0.00002149","BSTAR":"0.00015305000000","OBJECT_TYPE":"PAYLOAD","LAUNCH_DATE":"2022-09-24"},{"REV_AT_EPOCH":"2639","COUNTRY_CODE":"US","ARG_OF_PERICENTER":"109.6612","TIME_SYSTEM":"UTC","ECCENTRICITY":"0.00014520","MEAN_MOTION_DDOT":"0.0000000000000","SITE":"AFETR","CENTER_NAME":"EARTH","RCS_SIZE":"LARGE","MEAN_ANOMALY":"250.4537","EPOCH":"2023-03-10T18:35:59.949024","GP_ID":"227819825","PERIOD":"95.437","REF_FRAME":"TEME","TLE_LINE2":"2 53898  53.2161 199.0969 0001452 109.6612 250.4537 15.08845098 26397","ELEMENT_SET_NO":"999","TLE_LINE1":"1 53898U 22119N   23069.77499941  .00000211  00000-0  31329-4 0  9994","FILE":"3856975","NORAD_CAT_ID":"53898","PERIAPSIS":"538.725","OBJECT_ID":"2022-119N","CLASSIFICATION_TYPE":"U","MEAN_MOTION":"15.08845098","DECAY_DATE":null,"MEAN_ELEMENT_THEORY":"SGP4","APOAPSIS":"540.734","EPHEMERIS_TYPE":"0","RA_OF_ASC_NODE":"199.0969","SEMIMAJOR_AXIS":"6917.865","INCLINATION":"53.2161","OBJECT_TYPE":"PAYLOAD","LAUNCH_DATE":"2022-09-24","MEAN_MOTION_DOT":"0.00000211","BSTAR":"0.00003132900000","OBJECT_NAME":"STARLINK-5044"},{"CLASSIFICATION_TYPE":"U","MEAN_ELEMENT_THEORY":"SGP4","DECAY_DATE":null,"MEAN_MOTION":"15.08854247","EPHEMERIS_TYPE":"0","APOAPSIS":"540.549","INCLINATION":"53.2172","RA_OF_ASC_NODE":"198.5272","SEMIMAJOR_AXIS":"6917.837","TLE_LINE1":"1 53899U 22119P   23069.91117367  .00028055  00000-0  17731-2 0  9995","FILE":"3856975","ELEMENT_SET_NO":"999","TLE_LINE2":"2 53899  53.2172 198.5272 0001225 101.8625 258.2505 15.08854247 26417","PERIAPSIS":"538.854","NORAD_CAT_ID":"53899","OBJECT_ID":"2022-119P","OBJECT_NAME":"STARLINK-5042","OBJECT_TYPE":"PAYLOAD","LAUNCH_DATE":"2022-09-24","MEAN_MOTION_DOT":"0.00028055","BSTAR":"0.00177310000000","MEAN_MOTION_DDOT":"0.0000000000000","SITE":"AFETR","CENTER_NAME":"EARTH","REV_AT_EPOCH":"2641","COUNTRY_CODE":"US","ARG_OF_PERICENTER":"101.8625","TIME_SYSTEM":"UTC","ECCENTRICITY":"0.00012250","MEAN_ANOMALY":"258.2505","EPOCH":"2023-03-10T21:52:05.405088","GP_ID":"227819576","REF_FRAME":"TEME","PERIOD":"95.437","RCS_SIZE":"LARGE"},{"COUNTRY_CODE":"US","REV_AT_EPOCH":"2637","ARG_OF_PERICENTER":"103.0646","TIME_SYSTEM":"UTC","ECCENTRICITY":"0.00010580","MEAN_MOTION_DDOT":"0.0000000000000","SITE":"AFETR","CENTER_NAME":"EARTH","RCS_SIZE":"LARGE","MEAN_ANOMALY":"257.0465","EPOCH":"2023-03-10T15:14:37.081824","GP_ID":"227818324","REF_FRAME":"TEME","PERIOD":"95.437","FILE":"3856975","TLE_LINE1":"1 53900U 22119Q   23069.63515141  .00007497  00000-0  48848-3 0  9990","ELEMENT_SET_NO":"999","TLE_LINE2":"2 53900  53.2150 199.6465 0001058 103.0646 257.0465 15.08849247 26374","PERIAPSIS":"538.985","NORAD_CAT_ID":"53900","OBJECT_ID":"2022-119Q","CLASSIFICATION_TYPE":"U","MEAN_ELEMENT_THEORY":"SGP4","MEAN_MOTION":"15.08849247","DECAY_DATE":null,"EPHEMERIS_TYPE":"0","APOAPSIS":"540.449","INCLINATION":"53.2150","RA_OF_ASC_NODE":"199.6465","SEMIMAJOR_AXIS":"6917.852","OBJECT_TYPE":"PAYLOAD","LAUNCH_DATE":"2022-09-24","MEAN_MOTION_DOT":"0.00007497","BSTAR":"0.00048848000000","OBJECT_NAME":"STARLINK-5045"},{"TIME_SYSTEM":"UTC","ECCENTRICITY":"0.00013700","REV_AT_EPOCH":"2639","COUNTRY_CODE":"US","ARG_OF_PERICENTER":"99.7443","CENTER_NAME":"EARTH","MEAN_MOTION_DDOT":"0.0000000000000","SITE":"AFETR","RCS_SIZE":"LARGE","GP_ID":"227818574","PERIOD":"95.437","REF_FRAME":"TEME","MEAN_ANOMALY":"260.3704","EPOCH":"2023-03-10T18:46:36.310080","OBJECT_ID":"2022-119R","TLE_LINE2":"2 53901  53.2157 199.1472 0001370  99.7443 260.3704 15.08851132 26399","ELEMENT_SET_NO":"999","TLE_LINE1":"1 53901U 22119R   23069.78236470  .00001749  00000-0  12791-3 0  9994","FILE":"3856975","NORAD_CAT_ID":"53901","PERIAPSIS":"538.764","APOAPSIS":"540.659","EPHEMERIS_TYPE":"0","SEMIMAJOR_AXIS":"6917.846","RA_OF_ASC_NODE":"199.1472","INCLINATION":"53.2157","CLASSIFICATION_TYPE":"U","MEAN_MOTION":"15.08851132","DECAY_DATE":null,"MEAN_ELEMENT_THEORY":"SGP4","MEAN_MOTION_DOT":"0.00001749","BSTAR":"0.00012791000000","OBJECT_TYPE":"PAYLOAD","LAUNCH_DATE":"2022-09-24","OBJECT_NAME":"STARLINK-5024"},{"ARG_OF_PERICENTER":"86.0349","REV_AT_EPOCH":"130","COUNTRY_CODE":"US","ECCENTRICITY":"0.00013660","TIME_SYSTEM":"UTC","SITE":"AFETR","MEAN_MOTION_DDOT":"0.0000000000000","CENTER_NAME":"EARTH","RCS_SIZE":"LARGE","EPOCH":"2023-03-10T22:00:00.999936","MEAN_ANOMALY":"182.8287","PERIOD":"93.972","REF_FRAME":"TEME","GP_ID":"227819326","NORAD_CAT_ID":"53902","PERIAPSIS":"467.788","TLE_LINE2":"2 53902  53.2114 149.5378 0001366  86.0349 182.8287 15.32377446  1302","TLE_LINE1":"1 53902U 22119S   23069.91667824 -.00930893  00000-0 -32087-1 0  9992","FILE":"3856975","ELEMENT_SET_NO":"999","OBJECT_ID":"2022-119S","DECAY_DATE":null,"MEAN_MOTION":"15.32377446","MEAN_ELEMENT_THEORY":"SGP4","CLASSIFICATION_TYPE":"U","RA_OF_ASC_NODE":"149.5378","SEMIMAJOR_AXIS":"6846.858","INCLINATION":"53.2114","APOAPSIS":"469.659","EPHEMERIS_TYPE":"0","LAUNCH_DATE":"2022-09-24","OBJECT_TYPE":"PAYLOAD","BSTAR":"-0.03208700000000","MEAN_MOTION_DOT":"-0.00930893","OBJECT_NAME":"STARLINK-5021"},{"TIME_SYSTEM":"UTC","ECCENTRICITY":"0.00008720","COUNTRY_CODE":"US","REV_AT_EPOCH":"2637","ARG_OF_PERICENTER":"103.3016","CENTER_NAME":"EARTH","MEAN_MOTION_DDOT":"0.0000000000000","SITE":"AFETR","RCS_SIZE":"LARGE","GP_ID":"227820076","REF_FRAME":"TEME","PERIOD":"95.438","MEAN_ANOMALY":"256.8073","EPOCH":"2023-03-10T15:19:56.288352","OBJECT_ID":"2022-119T","FILE":"3856975","TLE_LINE1":"1 53903U 22119T   23069.63884593  .00002262  00000-0  16023-3 0  9998","ELEMENT_SET_NO":"999","TLE_LINE2":"2 53903  53.2192 199.6742 0000872 103.3016 256.8073 15.08827388 26372","PERIAPSIS":"539.181","NORAD_CAT_ID":"53903","EPHEMERIS_TYPE":"0","APOAPSIS":"540.387","INCLINATION":"53.2192","RA_OF_ASC_NODE":"199.6742","SEMIMAJOR_AXIS":"6917.919","CLASSIFICATION_TYPE":"U","MEAN_ELEMENT_THEORY":"SGP4","DECAY_DATE":null,"MEAN_MOTION":"15.08827388","MEAN_MOTION_DOT":"0.00002262","BSTAR":"0.00016023000000","OBJECT_TYPE":"PAYLOAD","LAUNCH_DATE":"2022-09-24","OBJECT_NAME":"STARLINK-5022"},{"ARG_OF_PERICENTER":"97.4268","REV_AT_EPOCH":"2637","COUNTRY_CODE":"US","ECCENTRICITY":"0.00018740","TIME_SYSTEM":"UTC","SITE":"AFETR","MEAN_MOTION_DDOT":"0.0000000000000","CENTER_NAME":"EARTH","RCS_SIZE":"LARGE","EPOCH":"2023-03-10T15:09:19.071072","MEAN_ANOMALY":"262.6937","REF_FRAME":"TEME","PERIOD":"95.437","GP_ID":"227818824","PERIAPSIS":"538.432","NORAD_CAT_ID":"53904","FILE":"3856975","TLE_LINE1":"1 53904U 22119U   23069.63147073  .00002212  00000-0  15701-3 0  9991","ELEMENT_SET_NO":"999","TLE_LINE2":"2 53904  53.2148 199.6301 0001874  97.4268 262.6937 15.08845641 26376","OBJECT_ID":"2022-119U","MEAN_ELEMENT_THEORY":"SGP4","MEAN_MOTION":"15.08845641","DECAY_DATE":null,"CLASSIFICATION_TYPE":"U","INCLINATION":"53.2148","RA_OF_ASC_NODE":"199.6301","SEMIMAJOR_AXIS":"6917.863","EPHEMERIS_TYPE":"0","APOAPSIS":"541.025","LAUNCH_DATE":"2022-09-24","OBJECT_TYPE":"PAYLOAD","BSTAR":"0.00015701000000","MEAN_MOTION_DOT":"0.00002212","OBJECT_NAME":"STARLINK-4787"}];
